start=new Date('2021-10-27T00:00:00.000Z').valueOf();
sats=[{"EPHEMERIS_TYPE":"0","PERIAPSIS":"545.984","ARG_OF_PERICENTER":"82.0735","NORAD_CAT_ID":"45387","OBJECT_ID":"2020-019AD","GP_ID":"188197478","TIME_SYSTEM":"UTC","RCS_SIZE":"LARGE","LAUNCH_DATE":"2020-03-18","MEAN_MOTION":"15.06397755","MEAN_MOTION_DOT":"0.00000833","REF_FRAME":"TEME","PERIOD":"95.592","BSTAR":"0.00007483200000","SEMIMAJOR_AXIS":"6925.355","TLE_LINE1":"1 45387U 20019AD  21299.45253874  .00000833  00000-0  74832-4 0  9992","CENTER_NAME":"EARTH","OBJECT_TYPE":"PAYLOAD","DECAY_DATE":null,"COUNTRY_CODE":"US","ELEMENT_SET_NO":"999","APOAPSIS":"548.457","MEAN_MOTION_DDOT":"0.0000000000000","FILE":"3184921","REV_AT_EPOCH":"8956","INCLINATION":"53.0534","EPOCH":"2021-10-26T10:51:39.347136","CLASSIFICATION_TYPE":"U","ECCENTRICITY":"0.00017860","MEAN_ELEMENT_THEORY":"SGP4","SITE":"AFETR","OBJECT_NAME":"STARLINK-1274","TLE_LINE2":"2 45387  53.0534 107.9239 0001786  82.0735 278.0457 15.06397755 89566","RA_OF_ASC_NODE":"107.9239","MEAN_ANOMALY":"278.0457"},{"RA_OF_ASC_NODE":"128.9502","MEAN_ANOMALY":"280.0105","TLE_LINE2":"2 45388  53.0535 128.9502 0001690  80.1075 280.0105 15.06390746 89245","CLASSIFICATION_TYPE":"U","ECCENTRICITY":"0.00016900","EPOCH":"2021-10-26T05:19:55.424928","MEAN_ELEMENT_THEORY":"SGP4","SITE":"AFETR","OBJECT_NAME":"STARLINK-1280","FILE":"3184921","INCLINATION":"53.0535","MEAN_MOTION_DDOT":"0.0000000000000","REV_AT_EPOCH":"8924","ELEMENT_SET_NO":"999","APOAPSIS":"548.412","CENTER_NAME":"EARTH","OBJECT_TYPE":"PAYLOAD","COUNTRY_CODE":"US","DECAY_DATE":null,"SEMIMAJOR_AXIS":"6925.377","BSTAR":"-0.00005186000000","TLE_LINE1":"1 45388U 20019AE  21299.22216927 -.00001054  00000-0 -51860-4 0  9990","PERIOD":"95.593","REF_FRAME":"TEME","MEAN_MOTION":"15.06390746","MEAN_MOTION_DOT":"-0.00001054","RCS_SIZE":"LARGE","TIME_SYSTEM":"UTC","LAUNCH_DATE":"2020-03-18","GP_ID":"188197730","ARG_OF_PERICENTER":"80.1075","NORAD_CAT_ID":"45388","OBJECT_ID":"2020-019AE","EPHEMERIS_TYPE":"0","PERIAPSIS":"546.072"},{"NORAD_CAT_ID":"45389","ARG_OF_PERICENTER":"88.8016","OBJECT_ID":"2020-019AF","GP_ID":"188198476","EPHEMERIS_TYPE":"0","PERIAPSIS":"545.981","MEAN_MOTION_DOT":"0.00000969","MEAN_MOTION":"15.06401285","REF_FRAME":"TEME","PERIOD":"95.592","RCS_SIZE":"LARGE","TIME_SYSTEM":"UTC","LAUNCH_DATE":"2020-03-18","ELEMENT_SET_NO":"999","APOAPSIS":"548.438","MEAN_MOTION_DDOT":"0.0000000000000","FILE":"3184921","INCLINATION":"53.0532","REV_AT_EPOCH":"8953","TLE_LINE1":"1 45389U 20019AF  21299.20190575  .00000969  00000-0  83912-4 0  9994","SEMIMAJOR_AXIS":"6925.345","BSTAR":"0.00008391200000","DECAY_DATE":null,"COUNTRY_CODE":"US","CENTER_NAME":"EARTH","OBJECT_TYPE":"PAYLOAD","MEAN_ANOMALY":"271.3177","RA_OF_ASC_NODE":"109.0322","OBJECT_NAME":"STARLINK-1283","ECCENTRICITY":"0.00017740","CLASSIFICATION_TYPE":"U","EPOCH":"2021-10-26T04:50:44.656800","MEAN_ELEMENT_THEORY":"SGP4","SITE":"AFETR","TLE_LINE2":"2 45389  53.0532 109.0322 0001774  88.8016 271.3177 15.06401285 89531"},{"COUNTRY_CODE":"US","DECAY_DATE":null,"CENTER_NAME":"EARTH","OBJECT_TYPE":"PAYLOAD","TLE_LINE1":"1 45390U 20019AG  21299.17609069  .00001110  00000-0  93402-4 0  9999","SEMIMAJOR_AXIS":"6925.348","BSTAR":"0.00009340200000","FILE":"3184921","REV_AT_EPOCH":"8952","MEAN_MOTION_DDOT":"0.0000000000000","INCLINATION":"53.0546","ELEMENT_SET_NO":"999","APOAPSIS":"548.512","TLE_LINE2":"2 45390  53.0546 109.1663 0001876  85.7769 274.3434 15.06400119 89524","OBJECT_NAME":"STARLINK-1284","CLASSIFICATION_TYPE":"U","ECCENTRICITY":"0.00018760","EPOCH":"2021-10-26T04:13:34.235616","SITE":"AFETR","MEAN_ELEMENT_THEORY":"SGP4","MEAN_ANOMALY":"274.3434","RA_OF_ASC_NODE":"109.1663","EPHEMERIS_TYPE":"0","PERIAPSIS":"545.914","GP_ID":"188197228","ARG_OF_PERICENTER":"85.7769","OBJECT_ID":"2020-019AG","NORAD_CAT_ID":"45390","TIME_SYSTEM":"UTC","RCS_SIZE":"LARGE","LAUNCH_DATE":"2020-03-18","REF_FRAME":"TEME","PERIOD":"95.592","MEAN_MOTION_DOT":"0.00001110","MEAN_MOTION":"15.06400119"},{"LAUNCH_DATE":"2020-03-18","TIME_SYSTEM":"UTC","RCS_SIZE":"LARGE","MEAN_MOTION":"15.06388516","MEAN_MOTION_DOT":"0.00000800","PERIOD":"95.593","REF_FRAME":"TEME","PERIAPSIS":"545.927","EPHEMERIS_TYPE":"0","OBJECT_ID":"2020-019AH","ARG_OF_PERICENTER":"85.6160","NORAD_CAT_ID":"45391","GP_ID":"188196979","MEAN_ELEMENT_THEORY":"SGP4","SITE":"AFETR","EPOCH":"2021-10-26T10:56:58.936416","CLASSIFICATION_TYPE":"U","ECCENTRICITY":"0.00019090","OBJECT_NAME":"STARLINK-1289","TLE_LINE2":"2 45391  53.0542 107.9023 0001909  85.6160 274.5047 15.06388516 89290","RA_OF_ASC_NODE":"107.9023","MEAN_ANOMALY":"274.5047","BSTAR":"0.00007261100000","SEMIMAJOR_AXIS":"6925.384","TLE_LINE1":"1 45391U 20019AH  21299.45623769  .00000800  00000-0  72611-4 0  9998","OBJECT_TYPE":"PAYLOAD","CENTER_NAME":"EARTH","COUNTRY_CODE":"US","DECAY_DATE":null,"APOAPSIS":"548.571","ELEMENT_SET_NO":"999","FILE":"3184921","REV_AT_EPOCH":"8929","MEAN_MOTION_DDOT":"0.0000000000000","INCLINATION":"53.0542"},{"GP_ID":"188198230","ARG_OF_PERICENTER":"77.9637","NORAD_CAT_ID":"45392","OBJECT_ID":"2020-019AJ","EPHEMERIS_TYPE":"0","PERIAPSIS":"540.771","PERIOD":"95.495","REF_FRAME":"TEME","MEAN_MOTION_DOT":"0.00002736","MEAN_MOTION":"15.07933689","RCS_SIZE":"LARGE","TIME_SYSTEM":"UTC","LAUNCH_DATE":"2020-03-18","FILE":"3184921","REV_AT_EPOCH":"8930","MEAN_MOTION_DDOT":"0.0000000000000","INCLINATION":"52.9934","ELEMENT_SET_NO":"999","APOAPSIS":"544.263","DECAY_DATE":null,"COUNTRY_CODE":"US","CENTER_NAME":"EARTH","OBJECT_TYPE":"PAYLOAD","TLE_LINE1":"1 45392U 20019AJ  21299.42262859  .00002736  00000-0  19453-3 0  9999","BSTAR":"0.00019453000000","SEMIMAJOR_AXIS":"6920.652","MEAN_ANOMALY":"282.1635","RA_OF_ASC_NODE":"104.8029","TLE_LINE2":"2 45392  52.9934 104.8029 0002523  77.9637 282.1635 15.07933689 89300","OBJECT_NAME":"STARLINK-1290","CLASSIFICATION_TYPE":"U","ECCENTRICITY":"0.00025230","EPOCH":"2021-10-26T10:08:35.110176","MEAN_ELEMENT_THEORY":"SGP4","SITE":"AFETR"},{"GP_ID":"188197977","ARG_OF_PERICENTER":"110.8981","OBJECT_ID":"2020-019AK","NORAD_CAT_ID":"45393","PERIAPSIS":"545.867","EPHEMERIS_TYPE":"0","REF_FRAME":"TEME","PERIOD":"95.592","MEAN_MOTION":"15.06395023","MEAN_MOTION_DOT":"0.00001946","LAUNCH_DATE":"2020-03-18","TIME_SYSTEM":"UTC","RCS_SIZE":"LARGE","MEAN_MOTION_DDOT":"0.0000000000000","FILE":"3184921","INCLINATION":"53.0534","REV_AT_EPOCH":"8932","APOAPSIS":"548.590","ELEMENT_SET_NO":"999","OBJECT_TYPE":"PAYLOAD","CENTER_NAME":"EARTH","COUNTRY_CODE":"US","DECAY_DATE":null,"BSTAR":"0.00014954000000","SEMIMAJOR_AXIS":"6925.364","TLE_LINE1":"1 45393U 20019AK  21299.41936957  .00001946  00000-0  14954-3 0  9999","RA_OF_ASC_NODE":"108.0720","MEAN_ANOMALY":"249.2219","TLE_LINE2":"2 45393  53.0534 108.0720 0001966 110.8981 249.2219 15.06395023 89329","SITE":"AFETR","MEAN_ELEMENT_THEORY":"SGP4","CLASSIFICATION_TYPE":"U","ECCENTRICITY":"0.00019660","EPOCH":"2021-10-26T10:03:53.530848","OBJECT_NAME":"STARLINK-1291"},{"APOAPSIS":"548.363","ELEMENT_SET_NO":"999","FILE":"3184921","MEAN_MOTION_DDOT":"0.0000000000000","REV_AT_EPOCH":"8930","INCLINATION":"53.0540","TLE_LINE1":"1 45394U 20019AL  21299.44887196  .00000913  00000-0  80166-4 0  9995","BSTAR":"0.00008016600000","SEMIMAJOR_AXIS":"6925.363","DECAY_DATE":null,"COUNTRY_CODE":"US","OBJECT_TYPE":"PAYLOAD","CENTER_NAME":"EARTH","MEAN_ANOMALY":"286.7813","RA_OF_ASC_NODE":"107.9393","OBJECT_NAME":"STARLINK-1292","MEAN_ELEMENT_THEORY":"SGP4","SITE":"AFETR","ECCENTRICITY":"0.00016390","CLASSIFICATION_TYPE":"U","EPOCH":"2021-10-26T10:46:22.537344","TLE_LINE2":"2 45394  53.0540 107.9393 0001639  73.3356 286.7813 15.06395190 89306","ARG_OF_PERICENTER":"73.3356","OBJECT_ID":"2020-019AL","NORAD_CAT_ID":"45394","GP_ID":"188196729","PERIAPSIS":"546.093","EPHEMERIS_TYPE":"0","MEAN_MOTION_DOT":"0.00000913","MEAN_MOTION":"15.06395190","REF_FRAME":"TEME","PERIOD":"95.592","LAUNCH_DATE":"2020-03-18","TIME_SYSTEM":"UTC","RCS_SIZE":"LARGE"},{"RA_OF_ASC_NODE":"109.0022","MEAN_ANOMALY":"282.2674","TLE_LINE2":"2 45395  53.0542 109.0022 0001851  77.8522 282.2674 15.06406392 88718","EPOCH":"2021-10-26T05:06:38.418624","CLASSIFICATION_TYPE":"U","ECCENTRICITY":"0.00018510","SITE":"AFETR","MEAN_ELEMENT_THEORY":"SGP4","OBJECT_NAME":"STARLINK-1297","MEAN_MOTION_DDOT":"0.0000000000000","FILE":"3184921","INCLINATION":"53.0542","REV_AT_EPOCH":"8871","ELEMENT_SET_NO":"999","APOAPSIS":"548.476","CENTER_NAME":"EARTH","OBJECT_TYPE":"PAYLOAD","DECAY_DATE":null,"COUNTRY_CODE":"US","SEMIMAJOR_AXIS":"6925.329","BSTAR":"0.00007696000000","TLE_LINE1":"1 45395U 20019AM  21299.21294466  .00000865  00000-0  76960-4 0  9996","PERIOD":"95.592","REF_FRAME":"TEME","MEAN_MOTION":"15.06406392","MEAN_MOTION_DOT":"0.00000865","RCS_SIZE":"LARGE","TIME_SYSTEM":"UTC","LAUNCH_DATE":"2020-03-18","GP_ID":"188197479","OBJECT_ID":"2020-019AM","NORAD_CAT_ID":"45395","ARG_OF_PERICENTER":"77.8522","EPHEMERIS_TYPE":"0","PERIAPSIS":"545.912"},{"ELEMENT_SET_NO":"999","APOAPSIS":"549.002","FILE":"3184921","MEAN_MOTION_DDOT":"0.0000000000000","INCLINATION":"53.0534","REV_AT_EPOCH":"8924","TLE_LINE1":"1 45396U 20019AN  21299.19451379  .00001819  00000-0  14099-3 0  9996","SEMIMAJOR_AXIS":"6925.315","BSTAR":"0.00014099000000","DECAY_DATE":null,"COUNTRY_CODE":"US","CENTER_NAME":"EARTH","OBJECT_TYPE":"PAYLOAD","MEAN_ANOMALY":"274.4423","RA_OF_ASC_NODE":"109.0791","OBJECT_NAME":"STARLINK-1303","ECCENTRICITY":"0.00026310","CLASSIFICATION_TYPE":"U","EPOCH":"2021-10-26T04:40:05.991456","SITE":"AFETR","MEAN_ELEMENT_THEORY":"SGP4","TLE_LINE2":"2 45396  53.0534 109.0791 0002631  85.6866 274.4423 15.06411014 89249","OBJECT_ID":"2020-019AN","ARG_OF_PERICENTER":"85.6866","NORAD_CAT_ID":"45396","GP_ID":"188197731","EPHEMERIS_TYPE":"0","PERIAPSIS":"545.358","MEAN_MOTION_DOT":"0.00001819","MEAN_MOTION":"15.06411014","REF_FRAME":"TEME","PERIOD":"95.591","TIME_SYSTEM":"UTC","RCS_SIZE":"LARGE","LAUNCH_DATE":"2020-03-18"}];
